HIMAWARI-8              
1 40267U 14060A   24266.06523559 -.00000285  00000+0  00000+0 0  9999
2 40267   0.0212 183.4004 0000797 348.2380 353.9212  1.00273095 36514
